{"type": "FeatureCollection", "features": [ {"type": "Feature", "properties": {"norad_id": 65077, "name": "CREW DRAGON 11", "group": "stations", "lat": 3.6654797992862163, "lon": -177.86965525291947, "alt_km": 421.2113364325769, "timestamp": "2025-12-05T07:38:17.647314+00:00", "meta": {"OBJECT_NAME": "CREW DRAGON 11", "OBJECT_ID": "2025-166A", "EPOCH": "2025-12-04T13:02:29.700384", "MEAN_MOTION": 15.49306035, "ECCENTRICITY": 0.00035956, "INCLINATION": 51.6299, "RA_OF_ASC_NODE": 183.0583, "ARG_OF_PERICENTER": 202.7086, "MEAN_ANOMALY": 157.3744, "EPHEMERIS_TYPE": 0, "CLASSIFICATION_TYPE": "U", "NORAD_CAT_ID": 65077, "ELEMENT_SET_NO": 999, "REV_AT_EPOCH": 214, "BSTAR": 0.00029317999, "MEAN_MOTION_DOT": 0.0001591, "MEAN_MOTION_DDOT": 0}, "tle": {"line1": "1 65077U 25166A   25338.54339931  .00015910  00000+0  29318-3 0  9994", "line2": "2 65077  51.6299 183.0583 0003595 202.7086 157.3744 15.49306035  2148"}}, "geometry": {"type": "Point", "coordinates": [-177.86965525291947, 3.6654797992862163]}}, {"type": "Feature", "properties": {"norad_id": 65304, "name": "DRAGON CRS-33", "group": "stations", "lat": 3.6654804058555834, "lon": -177.86965477042293, "alt_km": 421.2113363609442, "timestamp": "2025-12-05T07:38:17.647326+00:00", "meta": {"OBJECT_NAME": "DRAGON CRS-33", "OBJECT_ID": "2025-186A", "EPOCH": "2025-12-04T13:02:29.700384", "MEAN_MOTION": 15.49306035, "ECCENTRICITY": 0.00035956, "INCLINATION": 51.6299, "RA_OF_ASC_NODE": 183.0583, "ARG_OF_PERICENTER": 202.7086, "MEAN_ANOMALY": 157.3744, "EPHEMERIS_TYPE": 0, "CLASSIFICATION_TYPE": "U", "NORAD_CAT_ID": 65304, "ELEMENT_SET_NO": 999, "REV_AT_EPOCH": 11, "BSTAR": 0.00029317999, "MEAN_MOTION_DOT": 0.0001591, "MEAN_MOTION_DDOT": 0}, "tle": {"line1": "1 65304U 25186A   25338.54339931  .00015910  00000+0  29318-3 0  9999", "line2": "2 65304  51.6299 183.0583 0003595 202.7086 157.3744 15.49306035   116"}}, "geometry": {"type": "Point", "coordinates": [-177.86965477042293, 3.6654804058555834]}}, {"type": "Feature", "properties": {"norad_id": 65586, "name": "PROGRESS-MS 32", "group": "stations", "lat": 3.665480911329305, "lon": -177.869654368343, "alt_km": 421.2113363012477, "timestamp": "2025-12-05T07:38:17.647336+00:00", "meta": {"OBJECT_NAME": "PROGRESS-MS 32", "OBJECT_ID": "2025-204A", "EPOCH": "2025-12-04T13:02:29.700384", "MEAN_MOTION": 15.49306035, "ECCENTRICITY": 0.00035956, "INCLINATION": 51.6299, "RA_OF_ASC_NODE": 183.0583, "ARG_OF_PERICENTER": 202.7086, "MEAN_ANOMALY": 157.3744, "EPHEMERIS_TYPE": 0, "CLASSIFICATION_TYPE": "U", "NORAD_CAT_ID": 65586, "ELEMENT_SET_NO": 999, "REV_AT_EPOCH": 27, "BSTAR": 0.00029317999, "MEAN_MOTION_DOT": 0.0001591, "MEAN_MOTION_DDOT": 0}, "tle": {"line1": "1 65586U 25204A   25338.54339931  .00015910  00000+0  29318-3 0  9992", "line2": "2 65586  51.6299 183.0583 0003595 202.7086 157.3744 15.49306035   275"}}, "geometry": {"type": "Point", "coordinates": [-177.869654368343, 3.665480911329305]}}, {"type": "Feature", "properties": {"norad_id": 65616, "name": "CYGNUS NG-23", "group": "stations", "lat": 3.6654814168036833, "lon": -177.86965396626263, "alt_km": 421.21133624155027, "timestamp": "2025-12-05T07:38:17.647346+00:00", "meta": {"OBJECT_NAME": "CYGNUS NG-23", "OBJECT_ID": "2025-208A", "EPOCH": "2025-12-04T13:02:29.700384", "MEAN_MOTION": 15.49306035, "ECCENTRICITY": 0.00035956, "INCLINATION": 51.6299, "RA_OF_ASC_NODE": 183.0583, "ARG_OF_PERICENTER": 202.7086, "MEAN_ANOMALY": 157.3744, "EPHEMERIS_TYPE": 0, "CLASSIFICATION_TYPE": "U", "NORAD_CAT_ID": 65616, "ELEMENT_SET_NO": 999, "REV_AT_EPOCH": 22, "BSTAR": 0.00029317999, "MEAN_MOTION_DOT": 0.0001591, "MEAN_MOTION_DDOT": 0}, "tle": {"line1": "1 65616U 25208A   25338.54339931  .00015910  00000+0  29318-3 0  9990", "line2": "2 65616  51.6299 183.0583 0003595 202.7086 157.3744 15.49306035   224"}}, "geometry": {"type": "Point", "coordinates": [-177.86965396626263, 3.6654814168036833]}}, {"type": "Feature", "properties": {"norad_id": 65729, "name": "DRAGONFLY", "group": "stations", "lat": 28.697378296916177, "lon": -32.03022730545759, "alt_km": 357.7299329888283, "timestamp": "2025-12-05T07:38:17.647356+00:00", "meta": {"OBJECT_NAME": "DRAGONFLY", "OBJECT_ID": "1998-067XH", "EPOCH": "2025-12-04T14:13:07.489056", "MEAN_MOTION": 15.68739886, "ECCENTRICITY": 0.0006546, "INCLINATION": 51.6239, "RA_OF_ASC_NODE": 177.3823, "ARG_OF_PERICENTER": 225.5504, "MEAN_ANOMALY": 134.4958, "EPHEMERIS_TYPE": 0, "CLASSIFICATION_TYPE": "U", "NORAD_CAT_ID": 65729, "ELEMENT_SET_NO": 999, "REV_AT_EPOCH": 1188, "BSTAR": 0.0018658, "MEAN_MOTION_DOT": 0.00223063, "MEAN_MOTION_DDOT": 0}, "tle": {"line1": "1 65729U 98067XH  25338.59244779  .00223063  00000+0  18658-2 0  9992", "line2": "2 65729  51.6239 177.3823 0006546 225.5504 134.4958 15.68739886 11885"}}, "geometry": {"type": "Point", "coordinates": [-32.03022730545759, 28.697378296916177]}}, {"type": "Feature", "properties": {"norad_id": 65730, "name": "1998-067XJ", "group": "stations", "lat": -18.274585309265373, "lon": 151.17521061789057, "alt_km": 126.2891406515173, "timestamp": "2025-12-05T07:38:17.647366+00:00", "meta": {"OBJECT_NAME": "1998-067XJ", "OBJECT_ID": "1998-067XJ", "EPOCH": "2025-12-02T19:46:01.269984", "MEAN_MOTION": 16.23931094, "ECCENTRICITY": 0.00101147, "INCLINATION": 51.6061, "RA_OF_ASC_NODE": 180.4655, "ARG_OF_PERICENTER": 256.3912, "MEAN_ANOMALY": 103.5981, "EPHEMERIS_TYPE": 0, "CLASSIFICATION_TYPE": "U", "NORAD_CAT_ID": 65730, "ELEMENT_SET_NO": 999, "REV_AT_EPOCH": 1168, "BSTAR": 0.002285911, "MEAN_MOTION_DOT": 0.06330363, "MEAN_MOTION_DDOT": 1.1931217e-05}, "tle": {"line1": "1 65730U 98067XJ  25336.82362581  .06330363  11931-4  22859-2 0  9996", "line2": "2 65730  51.6061 180.4655 0010114 256.3912 103.5981 16.23931094 11687"}}, "geometry": {"type": "Point", "coordinates": [151.17521061789057, -18.274585309265373]}}, {"type": "Feature", "properties": {"norad_id": 65731, "name": "1998-067XK", "group": "stations", "lat": -33.55685052695855, "lon": 143.1226615820185, "alt_km": 381.80979360299716, "timestamp": "2025-12-05T07:38:17.647377+00:00", "meta": {"OBJECT_NAME": "1998-067XK", "OBJECT_ID": "1998-067XK", "EPOCH": "2025-12-03T20:33:14.862528", "MEAN_MOTION": 15.63596152, "ECCENTRICITY": 0.00059045, "INCLINATION": 51.628, "RA_OF_ASC_NODE": 182.229, "ARG_OF_PERICENTER": 193.4783, "MEAN_ANOMALY": 166.6055, "EPHEMERIS_TYPE": 0, "CLASSIFICATION_TYPE": "U", "NORAD_CAT_ID": 65731, "ELEMENT_SET_NO": 999, "REV_AT_EPOCH": 1175, "BSTAR": 0.0013142835, "MEAN_MOTION_DOT": 0.00126041, "MEAN_MOTION_DDOT": 0}, "tle": {"line1": "1 65731U 98067XK  25337.85642202  .00126041  00000+0  13143-2 0  9998", "line2": "2 65731  51.6280 182.2290 0005904 193.4783 166.6055 15.63596152 11759"}}, "geometry": {"type": "Point", "coordinates": [143.1226615820185, -33.55685052695855]}}, {"type": "Feature", "properties": {"norad_id": 65732, "name": "RSP-03", "group": "stations", "lat": -28.85320886589807, "lon": 20.167288934203512, "alt_km": 368.6127385960435, "timestamp": "2025-12-05T07:38:17.647387+00:00", "meta": {"OBJECT_NAME": "RSP-03", "OBJECT_ID": "1998-067XL", "EPOCH": "2025-12-04T13:52:03.031104", "MEAN_MOTION": 15.66125442, "ECCENTRICITY": 0.0006496, "INCLINATION": 51.625, "RA_OF_ASC_NODE": 178.0408, "ARG_OF_PERICENTER": 200.7712, "MEAN_ANOMALY": 159.3021, "EPHEMERIS_TYPE": 0, "CLASSIFICATION_TYPE": "U", "NORAD_CAT_ID": 65732, "ELEMENT_SET_NO": 999, "REV_AT_EPOCH": 1188, "BSTAR": 0.0016859, "MEAN_MOTION_DOT": 0.00180215, "MEAN_MOTION_DDOT": 0}, "tle": {"line1": "1 65732U 98067XL  25338.57781286  .00180215  00000+0  16859-2 0  9995", "line2": "2 65732  51.6250 178.0408 0006496 200.7712 159.3021 15.66125442 11881"}}, "geometry": {"type": "Point", "coordinates": [20.167288934203512, -28.85320886589807]}}, {"type": "Feature", "properties": {"norad_id": 65733, "name": "GHS-01", "group": "stations", "lat": -9.299659641993676, "lon": 165.79985217659035, "alt_km": 359.8692719048968, "timestamp": "2025-12-05T07:38:17.647397+00:00", "meta": {"OBJECT_NAME": "GHS-01", "OBJECT_ID": "1998-067XM", "EPOCH": "2025-12-03T22:05:54.332736", "MEAN_MOTION": 15.70494881, "ECCENTRICITY": 0.0007009, "INCLINATION": 51.6271, "RA_OF_ASC_NODE": 180.4028, "ARG_OF_PERICENTER": 220.9221, "MEAN_ANOMALY": 139.1251, "EPHEMERIS_TYPE": 0, "CLASSIFICATION_TYPE": "U", "NORAD_CAT_ID": 65733, "ELEMENT_SET_NO": 999, "REV_AT_EPOCH": 1179, "BSTAR": 0.001848703, "MEAN_MOTION_DOT": 0.00238165, "MEAN_MOTION_DDOT": 0}, "tle": {"line1": "1 65733U 98067XM  25337.92076774  .00238165  00000+0  18487-2 0  9990", "line2": "2 65733  51.6271 180.4028 0007009 220.9221 139.1251 15.70494881 11792"}}, "geometry": {"type": "Point", "coordinates": [165.79985217659035, -9.299659641993676]}}, {"type": "Feature", "properties": {"norad_id": 65941, "name": "YOTSUBA-KULOVER", "group": "stations", "lat": -41.41133610546731, "lon": 41.576474752541934, "alt_km": 396.3246546194341, "timestamp": "2025-12-05T07:38:17.647407+00:00", "meta": {"OBJECT_NAME": "YOTSUBA-KULOVER", "OBJECT_ID": "1998-067XN", "EPOCH": "2025-12-04T13:41:28.106016", "MEAN_MOTION": 15.58052031, "ECCENTRICITY": 0.00020554, "INCLINATION": 51.6276, "RA_OF_ASC_NODE": 180.9943, "ARG_OF_PERICENTER": 178.3938, "MEAN_ANOMALY": 181.7061, "EPHEMERIS_TYPE": 0, "CLASSIFICATION_TYPE": "U", "NORAD_CAT_ID": 65941, "ELEMENT_SET_NO": 999, "REV_AT_EPOCH": 858, "BSTAR": 0.0013676634, "MEAN_MOTION_DOT": 0.00105594, "MEAN_MOTION_DDOT": 0}, "tle": {"line1": "1 65941U 98067XN  25338.57046419  .00105594  00000+0  13677-2 0  9991", "line2": "2 65941  51.6276 180.9943 0002055 178.3938 181.7061 15.58052031  8584"}}, "geometry": {"type": "Point", "coordinates": [41.576474752541934, -41.41133610546731]}}]}